{
    "links": {
        "self": "http://www.neowsapp.com/rest/v1/neo/3856719?api_key=iIulBulltgU6a56xZRHN4H3l9WmuAYTsLGpBGhQ2"
    },
    "id": "3856719",
    "neo_reference_id": "3856719",
    "name": "(2019 SP4)",
    "designation": "2019 SP4",
    "nasa_jpl_url": "http://ssd.jpl.nasa.gov/sbdb.cgi?sstr=3856719",
    "absolute_magnitude_h": 23.7,
    "estimated_diameter": {
        "kilometers": {
            "estimated_diameter_min": 0.0483676488,
            "estimated_diameter_max": 0.1081533507
        },
        "meters": {
            "estimated_diameter_min": 48.3676488219,
            "estimated_diameter_max": 108.1533506775
        },
        "miles": {
            "estimated_diameter_min": 0.0300542543,
            "estimated_diameter_max": 0.0672033557
        },
        "feet": {
            "estimated_diameter_min": 158.6865169607,
            "estimated_diameter_max": 354.8338390368
        }
    },
    "is_potentially_hazardous_asteroid": false,
    "close_approach_data": [
        {
            "close_approach_date": "2019-09-04",
            "close_approach_date_full": "2019-Sep-04 08:48",
            "epoch_date_close_approach": 1567586880000,
            "relative_velocity": {
                "kilometers_per_second": "9.0280071101",
                "kilometers_per_hour": "32500.8255962728",
                "miles_per_hour": "20194.7491045285"
            },
            "miss_distance": {
                "astronomical": "0.0495254512",
                "lunar": "19.2654005168",
                "kilometers": "7408902.010308944",
                "miles": "4603678.2338096672"
            },
            "orbiting_body": "Earth"
        }
    ],
    "orbital_data": {
        "orbit_id": "2",
        "orbit_determination_date": "2019-10-03 06:13:46",
        "first_observation_date": "2019-09-25",
        "last_observation_date": "2019-10-01",
        "data_arc_in_days": 6,
        "observations_used": 17,
        "orbit_uncertainty": "8",
        "minimum_orbit_intersection": ".0423701",
        "jupiter_tisserand_invariant": "3.547",
        "epoch_osculation": "2458752.5",
        "eccentricity": ".5392256299998284",
        "semi_major_axis": "2.098090796996221",
        "inclination": "4.300017555100611",
        "ascending_node_longitude": "19.55209446727518",
        "orbital_period": "1110.030329070393",
        "perihelion_distance": ".966746465189092",
        "perihelion_argument": "296.2745840786438",
        "aphelion_distance": "3.229435128803351",
        "perihelion_time": "2458709.806293848700",
        "mean_anomaly": "13.84622907316375",
        "mean_motion": ".3243154628950417",
        "equinox": "J2000",
        "orbit_class": {
            "orbit_class_type": "APO",
            "orbit_class_description": "Near-Earth asteroid orbits which cross the Earth’s orbit similar to that of 1862 Apollo",
            "orbit_class_range": "a (semi-major axis) > 1.0 AU; q (perihelion) < 1.017 AU"
        }
    },
    "is_sentry_object": false
}